TDRS 3                  
1 19548U 88091B   22033.22576701 -.00000308  00000+0  00000+0 0  9993
2 19548  13.8096 352.3923 0040403 329.9543 202.5259  1.00271115109383
FLTSATCOM 8 (USA 46)    
1 20253U 89077A   22033.46509392 -.00000088  00000+0  00000+0 0  9996
2 20253  12.8970   1.1461 0001993  61.0480 309.7358  1.00271353244619
SKYNET 4C               
1 20776U 90079A   22033.52928655  .00000116  00000+0  00000+0 0  9995
2 20776  13.8429   1.0862 0003006 304.6008  51.1019  1.00265419114885
TDRS 5                  
1 21639U 91054B   22033.62946667  .00000075  00000+0  00000+0 0  9996
2 21639  14.2457   5.7201 0026483 353.3637 192.7468  1.00278217111710
TDRS 6                  
1 22314U 93003B   22033.37723479 -.00000305  00000+0  00000+0 0  9996
2 22314  14.1206   8.9447 0006764  96.4460 116.9089  1.00279074106407
UFO 2 (USA 95)          
1 22787U 93056A   22033.09764341  .00000115  00000+0  00000+0 0  9998
2 22787  11.4336  11.8820 0004241 297.0888 247.1679  1.00270044102545
USA 99 (MILSTAR-1 1)    
1 22988U 94009A   22033.50460378 -.00000210  00000+0  00000+0 0  9996
2 22988  15.1283  44.5514 0002747 256.3911 283.3747  1.00273681 16965
USA 107 (DSP 17)        
1 23435U 94084A   22033.47977310 -.00000176  00000+0  00000+0 0  9993
2 23435  14.5860   6.8530 0000274 122.2932  79.7540  1.00272826 16950
UFO 4 (USA 108)         
1 23467U 95003A   22033.60799987 -.00000036  00000+0  00000+0 0  9992
2 23467   9.8207  18.3645 0001727 349.2710 156.1264  1.00269372 98956
AMSC 1                  
1 23553U 95019A   22033.62128758 -.00000105  00000+0  00000+0 0  9996
2 23553  11.8205  27.1114 0006806 300.9507 280.8777  1.00272142 98170
TDRS 7                  
1 23613U 95035B   22033.39584262 -.00000211  00000+0  00000+0 0  9999
2 23613  14.0265 359.6265 0027186  40.0288 320.0991  1.00276222 97245
USA 113                 
1 23628U 95038A   22033.39968022 -.00000349  00000+0  00000+0 0  9990
2 23628  11.9595  25.9339 0002198 288.6142  65.4849  1.00264673 16962
USA 115 (MILSTAR-1 2)   
1 23712U 95060A   22033.61212814 -.00000030  00000+0  00000+0 0  9992
2 23712  13.4717  15.2954 0002636 289.3610 288.4632  1.00273634 16884
INMARSAT 3-F1           
1 23839U 96020A   22033.53931666 -.00000126  00000+0  00000+0 0  9999
2 23839   7.2625  58.9700 0003443 273.1179  78.5062  0.99976656 94291
INMARSAT 3-F2           
1 24307U 96053A   22033.08865572 -.00000279  00000+0  00000+0 0  9997
2 24307   6.2125  67.9902 0004905 292.7080 128.1918  0.99999165 92966
AMC-1 (GE-1)            
1 24315U 96054A   22033.60228029  .00000051  00000+0  00000+0 0  9992
2 24315   5.3029  74.2897 0003273 231.8499 272.5124  1.00270796 30327
INMARSAT 3-F3           
1 24674U 96070A   22033.58170855  .00000103  00000+0  00000+0 0  9996
2 24674   6.8451  62.6532 0004544 259.3777 224.8624  0.99994493 91958
GALAXY 25 (G-25)        
1 24812U 97026A   22033.53574071 -.00000018  00000+0  00000+0 0  9991
2 24812   3.3567  85.0159 0004241 216.8468  89.7851  1.00271510 90371
INTELSAT 5 (IS-5)       
1 24916U 97046A   22033.59086998  .00000105  00000+0  00000+0 0  9996
2 24916   6.9413  61.9799 0003478 193.5497 305.9810  1.00124199 89626
AMC-3 (GE-3)            
1 24936U 97050A   22033.50817973 -.00000274  00000+0  00000+0 0  9997
2 24936   4.2167  80.7517 0003104 244.2346 278.5930  1.00271072 36437
USA 134                 
1 25019U 97065A   22033.61880267 -.00000072  00000+0  00000+0 0  9990
2 25019  10.8982  32.3328 0005441 321.0169 250.0536  1.00269544 16957
ASTRA 1G                
1 25071U 97076A   22033.23937307  .00000101  00000+0  00000+0 0  9998
2 25071   5.9375  69.3156 0003986 244.4523 284.1656  1.00269928 88506
INMARSAT 3-F5           
1 25153U 98006B   22033.53648778 -.00000303  00000+0  00000+0 0  9992
2 25153   6.1010  66.7520 0004912 249.2714 315.7458  1.00267929 87898
UFO 8 (USA 138)         
1 25258U 98016A   22033.60807042 -.00000038  00000+0  00000+0 0  9993
2 25258   9.2813  30.4433 0002507 272.8684 219.8938  1.00271132 87850
ASTRA 2A                
1 25462U 98050A   22033.52815272  .00000135  00000+0  00000+0 0  9990
2 25462   3.0693  87.0270 0002094 232.9366  30.8913  1.00276939 30332
JCSAT-4A                
1 25630U 99006A   22033.60608431 -.00000236  00000+0  00000+0 0  9998
2 25630   5.9342  69.7961 0024708 358.5691  92.8510  0.98812894   449
SKYNET 4E               
1 25639U 99009B   22033.23518660 -.00000045  00000+0  00000+0 0  9991
2 25639  11.1790  17.6516 0003350 289.4666 268.7493  1.00271227 35384
ABS-7                   
1 25894U 99046A   22033.52937377  .00000141  00000+0  00000+0 0  9993
2 25894   2.4254  89.1222 0002889 234.4640  33.7491  1.00275769 81127
ABS-6                   
1 25924U 99053A   22033.59629684 -.00000131  00000+0  00000+0 0  9991
2 25924   0.0490 298.5266 0001747  11.2266 196.6745  1.00277422 81857
AMC-4 (GE-4)            
1 25954U 99060A   22033.59922521  .00000074  00000+0  00000+0 0  9993
2 25954   1.1826  93.4360 0003133 233.9350 246.1827  1.00272575 27553
UFO 10 (USA 146)        
1 25967U 99063A   22033.30269352 -.00000199  00000+0  00000+0 0  9994
2 25967   8.5473  33.8789 0002233 279.5176 265.1248  1.00275882 81340
GALAXY 11 (G-11)        
1 26038U 99071A   22033.50399325 -.00000176  00000+0  00000+0 0  9994
2 26038   2.6752  89.5291 0000575  69.1523  62.2867  1.00270976 81080
USA 148                 
1 26052U 00001A   22033.61496351  .00000029  00000+0  00000+0 0  9990
2 26052   9.3268  43.2131 0002089 268.8072 222.6046  1.00276768 16962
ASIASTAR                
1 26107U 00016A   22033.54350313 -.00000348  00000+0  00000+0 0  9991
2 26107   5.3671  73.0646 0004096 241.5815 118.7162  1.00271191 79915
USA 149 (DSP 20)        
1 26356U 00024A   22033.62673037  .00000084  00000+0  00000+0 0  9992
2 26356  11.9835  22.3912 0001013 338.7633 191.3993  1.00268894 16918
TDRS 8                  
1 26388U 00034A   22033.54036328 -.00000245  00000+0  00000+0 0  9995
2 26388  10.1544  43.4811 0020205 326.1915  46.7901  1.00267824 79183
INTELSAT 9 (IS-9)       
1 26451U 00043A   22033.52196128 -.00000301  00000+0  00000+0 0  9992
2 26451   6.9284  62.1611 0002334 236.9607 331.4493  1.00272883 28144
NSS-11 (AAP-1)          
1 26554U 00059A   22033.61105779  .00000012  00000+0  00000+0 0  9993
2 26554   0.0416 277.7386 0002586  50.9001 200.0814  1.00270585 25292
USA 153                 
1 26575U 00065A   22033.40578550 -.00000340  00000+0  00000+0 0  9996
2 26575   8.8724  46.5427 0002142 276.2629  90.0058  1.00264355 16934
AMC-6 (GE-6)            
1 26580U 00067A   22033.59575490  .00000092  00000+0  00000+0 0  9997
2 26580   0.0151 314.7695 0002577   5.6682 247.7967  1.00268674 77924
INTELSAT 1R (IS-1R)     
1 26608U 00072A   22033.59488247 -.00000153  00000+0  00000+0 0  9996
2 26608   4.1059  81.3018 0001298 356.3895  66.2933  1.00271524 25326
ANIK F1                 
1 26624U 00076A   22033.62064958 -.00000075  00000+0  00000+0 0  9994
2 26624   1.0973  94.3492 0003038 262.1386 250.5390  1.00271058 27147
ASTRA 2D                
1 26638U 00081A   22033.32618885  .00000115  00000+0  00000+0 0  9990
2 26638   7.0079  61.2077 0002085 261.5522 310.8313  1.00270356 36902
AMC-8 (GE-8)            
1 26639U 00081B   22033.59922451  .00000074  00000+0  00000+0 0  9991
2 26639   2.1092  90.0659 0002832 228.6678 254.7252  1.00272967 77336
USA 157 (MILSTAR-2 2)   
1 26715U 01009A   22033.60794758  .00000003  00000+0  00000+0 0  9998
2 26715   9.8851  27.7841 0001942 295.0503 264.4732  1.00272379 16953
EUTELSAT 133 WEST A     
1 26719U 01011A   22033.60156976  .00000063  00000+0  00000+0 0  9995
2 26719   3.3843  84.0540 0003056 242.8674 249.5424  1.00274369 76540
INTELSAT 10 (IS-10)     
1 26766U 01019A   22033.61254576  .00000020  00000+0  00000+0 0  9994
2 26766   5.2610  74.5142 0003092 243.4533 213.0924  1.00271548 29622
INTELSAT 901 (IS-901)   
1 26824U 01024A   22033.44529538 -.00000215  00000+0  00000+0 0  9996
2 26824   0.0183 258.0968 0000848  68.2442 299.0843  1.00268065  6975
ASTRA 2C                
1 26853U 01025A   22033.56125541 -.00000273  00000+0  00000+0 0  9992
2 26853   4.2428  80.5506 0002561 234.1429 307.5890  1.00269478 29043
USA 159 (DSP 21)        
1 26880U 01033A   22033.29754763 -.00000308  00000+0  00000+0 0  9994
2 26880  11.3032  26.6103 0000690   9.0571 154.6848  1.00266288 16962
INTELSAT 902 (IS-902)   
1 26900U 01039A   22033.51254066 -.00000296  00000+0  00000+0 0  9995
2 26900   2.0678  90.5174 0003205 228.3481 308.2173  1.00272225 74697
USA 164 (MILSTAR-2 3)   
1 27168U 02001A   22033.64447330  .00000089  00000+0  00000+0 0  9993
2 27168   9.3667  29.5583 0002095 269.7612  84.4173  1.00273441 15643
ECHOSTAR 7              
1 27378U 02006A   22033.61276443 -.00000013  00000+0  00000+0 0  9991
2 27378   0.0606 281.5133 0001326  41.2538 271.7766  1.00274306 34601
INTELSAT 904 (IS-904)   
1 27380U 02007A   22033.30138524 -.00000228  00000+0  00000+0 0  9996
2 27380   2.9013  87.3908 0002940 235.6981 248.3505  1.00271033 35766
TDRS 9                  
1 27389U 02011A   22033.51001132 -.00000300  00000+0  00000+0 0  9998
2 27389   8.7339  62.0476 0028488 292.0369 259.8445  1.00266828 74446
ASTRA 3A                
1 27400U 02015B   22033.50530153 -.00000217  00000+0  00000+0 0  9992
2 27400   7.1166  60.0586 0001578 237.5387 290.1589  1.00273063 72721
NSS-7                   
1 27414U 02019A   22033.44677809 -.00000172  00000+0  00000+0 0  9994
2 27414   5.5855  72.4126 0002680 254.9102 306.1068  1.00271562 72567
DIRECTV 5 (TEMPO 1)     
1 27426U 02023A   22033.61810178 -.00000068  00000+0  00000+0 0  9993
2 27426   0.7902  94.8456 0003409 234.7525 275.5449  1.00271638 72127
INTELSAT 905 (IS-905)   
1 27438U 02027A   22033.44590590 -.00000198  00000+0  00000+0 0  9998
2 27438   2.7238  88.1543 0002533 223.6424 316.8161  1.00272184 35361
